NORAD_CAT_ID,OBJECT_NAME,OBJECT_TYPE,EPOCH,MEAN_MOTION,ECCENTRICITY,INCLINATION,RA_OF_ASC_NODE,ARG_OF_PERICENTER,MEAN_ANOMALY,BSTAR,MEAN_MOTION_DOT,MEAN_MOTION_DDOT,TLE_LINE0,TLE_LINE1,TLE_LINE2,SEMIMAJOR_AXIS,PERIOD,APOGEE,PERIGEE,DECAYED
53750.0,STARLINK-4612,PAYLOAD,2022-09-12 16:00:00,15.77919519,0.0001311,53.2167,235.7175,48.6981,36.218,-0.0079398,-0.01214899,0.0,0 STARLINK-4612,1 53750U 22107BC  22255.66667824 -.01214899  00000-0 -79398-2 0  9997,2 53750  53.2167 235.7175 0001311  48.6981  36.2180 15.77919519  1306,6714.473000000001,91.259,337.218,335.458,0.0
53750.0,STARLINK-4612,PAYLOAD,2022-09-13 14:00:01,15.75519548,0.0001244,53.2174,231.158,54.7632,196.2814,-0.0086943,-0.01197081,0.0,0 STARLINK-4612,1 53750U 22107BC  22256.58334491 -.01197081  00000-0 -86943-2 0  9997,2 53750  53.2174 231.1580 0001244  54.7632 196.2814 15.75519548  1307,6721.29,91.398,343.991,342.319,0.0
53750.0,STARLINK-4612,PAYLOAD,2022-09-13 16:00:00,15.7530095,0.0001105,53.2176,230.7437,48.4895,315.4486,-0.0087552,-0.01194171,0.0,0 STARLINK-4612,1 53750U 22107BC  22256.66667824 -.01194171  00000-0 -87552-2 0  9999,2 53750  53.2176 230.7437 0001105  48.4895 315.4486 15.75300950  1453,6721.9119999999975,91.411,344.52,343.034,0.0
53750.0,STARLINK-4612,PAYLOAD,2022-09-13 22:00:00,15.74646455,0.0001056,53.2177,229.5026,57.54600000000001,284.6803,-0.0089652,-0.01188757,0.0,0 STARLINK-4612,1 53750U 22107BC  22256.91667824 -.01188757  00000-0 -89652-2 0  9993,2 53750  53.2177 229.5026 0001056  57.5460 284.6803 15.74646455  1304,6723.774,91.449,346.349,344.92900000000014,0.0
53750.0,STARLINK-4612,PAYLOAD,2022-09-14 04:00:00,15.73854638,0.0001065999999999,53.2175,228.2652,68.7053,251.241,-0.005465,-0.00724935,0.0,0 STARLINK-4612,1 53750U 22107BC  22257.16667824 -.00724935  00000-0 -54650-2 0  9994,2 53750  53.2175 228.2652 0001066  68.7053 251.2410 15.73854638  1538,6726.029,91.495,348.611,347.177,0.0
53750.0,STARLINK-4612,PAYLOAD,2022-09-14 14:00:01,15.73159244,0.0001431,53.214,226.2014,75.1966,86.2733,0.00013717,0.0001864,0.0,0 STARLINK-4612,1 53750U 22107BC  22257.58334491  .00018640  00000-0  13717-3 0  9998,2 53750  53.2140 226.2014 0001431  75.1966  86.2733 15.73159244  1604,6728.011,91.536,350.839,348.914,0.0
53750.0,STARLINK-4612,PAYLOAD,2022-09-14 22:00:00,15.73187082,0.0001422,53.2143,224.551,86.5057,163.8509,0.00061098,0.00085961,0.0,0 STARLINK-4612,1 53750U 22107BC  22257.91667824  .00085961  00000-0  61098-3 0  9999,2 53750  53.2143 224.5510 0001422  86.5057 163.8509 15.73187082  1307,6727.932,91.534,350.754,348.84,0.0
53750.0,STARLINK-4612,PAYLOAD,2022-09-15 06:00:00,15.732320800000002,0.0001464,53.2144,222.9035,77.2543,262.0533,0.00061893,0.0008727,0.0,0 STARLINK-4612,1 53750U 22107BC  22258.25001157  .00087270  00000-0  61893-3 0  9996,2 53750  53.2144 222.9035 0001464  77.2543 262.0533 15.73232080  1707,6727.804,91.531,350.654,348.684,0.0
53750.0,STARLINK-4612,PAYLOAD,2022-09-15 14:00:01,15.73332958,0.0001272,53.2144,221.2527,79.2686,349.0275,-0.00055315,-0.00077976,0.0,0 STARLINK-4612,1 53750U 22107BC  22258.58334491 -.00077976  00000-0 -55315-3 0  9998,2 53750  53.2144 221.2527 0001272  79.2686 349.0275 15.73332958  1302,6727.516,91.525,350.237,348.525,0.0
53750.0,STARLINK-4612,PAYLOAD,2022-09-15 22:00:00,15.73298675,0.0001284,53.2146,219.6022,88.5664,68.7764,-0.00043856,-0.00061977,0.0,0 STARLINK-4612,1 53750U 22107BC  22258.91667824 -.00061977  00000-0 -43856-3 0  9995,2 53750  53.2146 219.6022 0001284  88.5664  68.7764 15.73298675  1302,6727.614000000001,91.527,350.343,348.615,0.0
53750.0,STARLINK-4612,PAYLOAD,2022-09-16 00:00:00,15.73323723,0.0001210999999999,53.2145,219.1904,86.3273,183.2663,-0.0010597999999999,-0.00147554,0.0,0 STARLINK-4612,1 53750U 22107BC  22259.00001157 -.00147554  00000-0 -10598-2 0  9999,2 53750  53.2145 219.1904 0001211  86.3273 183.2663 15.73323723  1828,6727.542,91.526,350.222,348.593,0.0
53750.0,STARLINK-4612,PAYLOAD,2022-09-16 14:00:01,15.73148055,0.0001205999999999,53.2136,216.3037,85.9768,249.3049,-0.00010884,-0.00015831,0.0,0 STARLINK-4612,1 53750U 22107BC  22259.58334491 -.00015831  00000-0 -10884-3 0  9993,2 53750  53.2136 216.3037 0001206  85.9768 249.3049 15.73148055  1300,6728.043000000002,91.536,350.72,349.097,0.0
53750.0,STARLINK-4612,PAYLOAD,2022-09-16 22:00:00,15.73152105,0.0001284999999999,53.2139,214.6537,94.0804,330.0531,0.00040326,0.00056238,0.0,0 STARLINK-4612,1 53750U 22107BC  22259.91667824  .00056238  00000-0  40326-3 0  9997,2 53750  53.2139 214.6537 0001285  94.0804 330.0531 15.73152105  1965,6728.031999999997,91.536,350.761,349.032,0.0
53750.0,STARLINK-4612,PAYLOAD,2022-09-17 14:00:01,15.73221203,0.0001047,53.214,211.3552,88.9715,152.9907,-0.0002947,-0.0004181,0.0,0 STARLINK-4612,1 53750U 22107BC  22260.58334491 -.00041810  00000-0 -29470-3 0  9992,2 53750  53.2140 211.3552 0001047  88.9715 152.9907 15.73221203  1309,6727.835,91.532,350.404,348.995,0.0
53750.0,STARLINK-4612,PAYLOAD,2022-09-17 22:00:00,15.73218884,9.69e-05,53.2141,209.7053,96.0391,234.8504,0.00022526,0.00031136,0.0,0 STARLINK-4612,1 53750U 22107BC  22260.91667824  .00031136  00000-0  22526-3 0  9991,2 53750  53.2141 209.7053 0000969  96.0391 234.8504 15.73218884  2124,6727.840999999999,91.532,350.358,349.05400000000014,0.0
53750.0,STARLINK-4612,PAYLOAD,2022-09-18 14:00:01,15.73226655,7.32e-05,53.2134,206.4062,97.5929,51.2874,0.00021914,0.00030281,0.0,0 STARLINK-4612,1 53750U 22107BC  22261.58335648  .00030281  00000-0  21914-3 0  9991,2 53750  53.2134 206.4062 0000732  97.5929  51.2874 15.73226655  2239,6727.819,91.532,350.177,349.19199999999995,0.0
53750.0,STARLINK-4612,PAYLOAD,2022-09-18 22:00:00,15.73268432,9.55e-05,53.2135,204.7566,103.1039,134.6823,-0.00025738,-0.00036689,0.0,0 STARLINK-4612,1 53750U 22107BC  22261.91667824 -.00036689  00000-0 -25738-3 0  9990,2 53750  53.2135 204.7566 0000955 103.1039 134.6823 15.73268432  1309,6727.7,91.529,350.208,348.923,0.0
53750.0,STARLINK-4612,PAYLOAD,2022-09-19 06:00:02,15.73260146,0.0001171,53.2136,203.1087,86.935,239.9114,-0.0004668,-0.00065789,0.0,0 STARLINK-4612,1 53750U 22107BC  22262.25002315 -.00065789  00000-0 -46680-3 0  9998,2 53750  53.2136 203.1087 0001171  86.9350 239.9114 15.73260146  2336,6727.724,91.53,350.37699999999984,348.801,0.0
53750.0,STARLINK-4612,PAYLOAD,2022-09-19 14:00:01,15.73164465,0.0001404,53.2139,201.4572,98.0256,317.7362,3.9332e-05,4.895e-05,0.0,0 STARLINK-4612,1 53750U 22107BC  22262.58334491  .00004895  00000-0  39332-4 0  9993,2 53750  53.2139 201.4572 0001404  98.0256 317.7362 15.73164465  1300,6727.996,91.535,350.806,348.917,0.0
53750.0,STARLINK-4612,PAYLOAD,2022-09-19 22:00:00,15.73224799,0.0001525,53.2139,199.8077,99.7904,44.854,-0.00026563,-0.00037773,0.0,0 STARLINK-4612,1 53750U 22107BC  22262.91667824 -.00037773  00000-0 -26563-3 0  9993,2 53750  53.2139 199.8077 0001525  99.7904  44.8540 15.73224799  2441,6727.824000000001,91.532,350.715,348.663,0.0
53750.0,STARLINK-4612,PAYLOAD,2022-09-20 14:00:01,15.73176949,0.0001118,53.2134,196.5085,106.7497,215.762,-1.7074e-05,-3.012e-05,0.0,0 STARLINK-4612,1 53750U 22107BC  22263.58334491 -.00003012  00000-0 -17074-4 0  9995,2 53750  53.2134 196.5085 0001118 106.7497 215.7620 15.73176949  1308,6727.9609999999975,91.535,350.57800000000015,349.074,0.0
53750.0,STARLINK-4612,PAYLOAD,2022-09-20 22:00:01,15.7322136,0.0001115999999999,53.2137,194.8592,107.4716,303.9927,-0.00017201,-0.00024711,0.0,0 STARLINK-4612,1 53750U 22107BC  22263.91668981 -.00024711  00000-0 -17201-3 0  9996,2 53750  53.2137 194.8592 0001116 107.4716 303.9927 15.73221360  2595,6727.834,91.532,350.45,348.9480000000001,0.0
53750.0,STARLINK-4612,PAYLOAD,2022-09-21 22:00:00,15.73195839,0.0001509,53.2144,189.9107,103.6597,214.4777,0.000184,0.00025276,0.0,0 STARLINK-4612,1 53750U 22107BC  22264.91667824  .00025276  00000-0  18400-3 0  9999,2 53750  53.2144 189.9107 0001509 103.6597 214.4777 15.73195839  1309,6727.906999999997,91.533,350.787,348.75699999999995,0.0
53750.0,STARLINK-4612,PAYLOAD,2022-09-22 06:00:00,15.73211177,0.0001346,53.214,188.2626,95.5643,311.4925,3.8547e-05,4.795e-05,0.0,0 STARLINK-4612,1 53750U 22107BC  22265.25001157  .00004795  00000-0  38547-4 0  9996,2 53750  53.2140 188.2626 0001346  95.5643 311.4925 15.73211177  2806,6727.863,91.533,350.634,348.8230000000001,0.0
53750.0,STARLINK-4612,PAYLOAD,2022-09-22 14:00:01,15.73165649,0.0001188,53.214,186.6111,112.6862,23.3231,0.00057237,0.00080361,0.0,0 STARLINK-4612,1 53750U 22107BC  22265.58334491  .00080361  00000-0  57237-3 0  9991,2 53750  53.2140 186.6111 0001188 112.6862  23.3231 15.73165649  1300,6727.993,91.535,350.657,349.059,0.0
53750.0,STARLINK-4612,PAYLOAD,2022-09-22 22:00:00,15.73263823,0.0001129,53.2143,184.9623,115.8034,109.1184,-0.00068176,-0.00095479,0.0,0 STARLINK-4612,1 53750U 22107BC  22265.91667824 -.00095479  00000-0 -68176-3 0  9999,2 53750  53.2143 184.9623 0001129 115.8034 109.1184 15.73263823  1306,6727.7130000000025,91.529,350.338,348.819,0.0
53750.0,STARLINK-4612,PAYLOAD,2022-09-23 06:00:00,15.73187126,0.0001274,53.2164,183.3143,104.9868,208.9085,0.00020297,0.00027944,0.0,0 STARLINK-4612,1 53750U 22107BC  22266.25001157  .00027944  00000-0  20297-3 0  9990,2 53750  53.2164 183.3143 0001274 104.9868 208.9085 15.73187126  2966,6727.932,91.534,350.654,348.94,0.0
53750.0,STARLINK-4612,PAYLOAD,2022-09-23 14:00:01,15.73206701,9.36e-05,53.2148,181.6625,121.0873,281.7172,0.00045457,0.00063679,0.0,0 STARLINK-4612,1 53750U 22107BC  22266.58334491  .00063679  00000-0  45457-3 0  9996,2 53750  53.2148 181.6625 0000936 121.0873 281.7172 15.73206701  1308,6727.876,91.533,350.371,349.111,0.0
53750.0,STARLINK-4612,PAYLOAD,2022-09-23 20:00:01,15.73272564,0.0001149999999999,53.2159,180.4248,117.7886,261.7798,-0.00060221,-0.00084551,0.0,0 STARLINK-4612,1 53750U 22107BC  22266.83335648 -.00084551  00000-0 -60221-3 0  9999,2 53750  53.2159 180.4248 0001150 117.7886 261.7798 15.73272564  1305,6727.688,91.529,350.327,348.78,0.0
